{
 "type": "FeatureCollection",
 "name": "vansar_parcels",
 "crs": {
  "type": "name",
  "properties": {
   "name": "urn:ogc:def:crs:OGC:1.3:CRS84"
  }
 },
 "features": [
  {
   "type": "Feature",
   "properties": {
    "parcel_id": "P01",
    "land_use": "industrial",
    "area_m2": 660.4,
    "source": "digitised from open drone imagery"
   },
   "geometry": {
    "type": "Polygon",
    "coordinates": [
     [
      [
       72.71342421,
       22.71831334
      ],
      [
       72.71358877,
       22.71832823
      ],
      [
       72.71376537,
       22.71840829
      ],
      [
       72.71373928,
       22.71853675
      ],
      [
       72.7137185,
       22.7185496
      ],
      [
       72.71364858,
       22.71855648
      ],
      [
       72.7135958,
       22.71856691
      ],
      [
       72.71355887,
       22.71856095
      ],
      [
       72.71354583,
       22.71853563
      ],
      [
       72.71354422,
       22.71847326
      ],
      [
       72.71352957,
       22.71846544
      ],
      [
       72.71346636,
       22.71846656
      ],
      [
       72.71345893,
       22.71845222
      ],
      [
       72.71344027,
       22.71844757
      ],
      [
       72.71343585,
       22.7184418
      ],
      [
       72.71343124,
       22.71839432
      ],
      [
       72.71341579,
       22.71837999
      ],
      [
       72.71341739,
       22.71832283
      ],
      [
       72.71341717,
       22.71832249
      ],
      [
       72.71342421,
       22.71831334
      ]
     ]
    ]
   }
  },
  {
   "type": "Feature",
   "properties": {
    "parcel_id": "P02",
    "land_use": "agricultural",
    "area_m2": 182.5,
    "source": "digitised from open drone imagery"
   },
   "geometry": {
    "type": "Polygon",
    "coordinates": [
     [
      [
       72.71394599,
       22.71821281
      ],
      [
       72.71404633,
       22.71821467
      ],
      [
       72.71404432,
       22.7183785
      ],
      [
       72.71394398,
       22.71836919
      ],
      [
       72.71394599,
       22.71821281
      ]
     ]
    ]
   }
  },
  {
   "type": "Feature",
   "properties": {
    "parcel_id": "P03",
    "land_use": "agricultural",
    "area_m2": 472.7,
    "source": "digitised from open drone imagery"
   },
   "geometry": {
    "type": "Polygon",
    "coordinates": [
     [
      [
       72.71405435,
       22.71821467
      ],
      [
       72.71431323,
       22.71821839
      ],
      [
       72.71430119,
       22.71838595
      ],
      [
       72.71405235,
       22.71837478
      ],
      [
       72.71405435,
       22.71821467
      ]
     ]
    ]
   }
  },
  {
   "type": "Feature",
   "properties": {
    "parcel_id": "P04",
    "land_use": "agricultural",
    "area_m2": 733.7,
    "source": "digitised from open drone imagery"
   },
   "geometry": {
    "type": "Polygon",
    "coordinates": [
     [
      [
       72.71405636,
       22.71795775
      ],
      [
       72.71431725,
       22.7179652
      ],
      [
       72.71430922,
       22.71821281
      ],
      [
       72.71405034,
       22.71820722
      ],
      [
       72.71405636,
       22.71795775
      ]
     ]
    ]
   }
  },
  {
   "type": "Feature",
   "properties": {
    "parcel_id": "P05",
    "land_use": "agricultural",
    "area_m2": 426.8,
    "source": "digitised from open drone imagery"
   },
   "geometry": {
    "type": "Polygon",
    "coordinates": [
     [
      [
       72.71387976,
       22.71786094
      ],
      [
       72.71404031,
       22.71786653
      ],
      [
       72.71403428,
       22.71810297
      ],
      [
       72.71387575,
       22.71809552
      ],
      [
       72.71387976,
       22.71786094
      ]
     ]
    ]
   }
  },
  {
   "type": "Feature",
   "properties": {
    "parcel_id": "P06",
    "land_use": "agricultural",
    "area_m2": 336.2,
    "source": "digitised from open drone imagery"
   },
   "geometry": {
    "type": "Polygon",
    "coordinates": [
     [
      [
       72.71379949,
       22.71811414
      ],
      [
       72.71393996,
       22.71812717
      ],
      [
       72.71393796,
       22.71836174
      ],
      [
       72.71379547,
       22.71829658
      ],
      [
       72.71379949,
       22.71811414
      ]
     ]
    ]
   }
  },
  {
   "type": "Feature",
   "properties": {
    "parcel_id": "P07",
    "land_use": "water_body",
    "area_m2": 252.9,
    "source": "digitised from open drone imagery"
   },
   "geometry": {
    "type": "Polygon",
    "coordinates": [
     [
      [
       72.71347438,
       22.71800243
      ],
      [
       72.71351051,
       22.71792424
      ],
      [
       72.71360884,
       22.71792796
      ],
      [
       72.71363493,
       22.71800616
      ],
      [
       72.71359479,
       22.71809552
      ],
      [
       72.71347037,
       22.71808062
      ],
      [
       72.71347438,
       22.71800243
      ]
     ]
    ]
   }
  },
  {
   "type": "Feature",
   "properties": {
    "parcel_id": "P08",
    "land_use": "agricultural",
    "area_m2": 461.6,
    "source": "digitised from open drone imagery"
   },
   "geometry": {
    "type": "Polygon",
    "coordinates": [
     [
      [
       72.71407643,
       22.71779206
      ],
      [
       72.71434133,
       22.71780695
      ],
      [
       72.71432126,
       22.71795589
      ],
      [
       72.71405636,
       22.71794844
      ],
      [
       72.71407643,
       22.71779206
      ]
     ]
    ]
   }
  }
 ]
}